GLOBALSTAR M094 [+]     
1 39074U 13005C   23315.03625632 -.00000064  00000+0  22277-3 0  9996
2 39074  51.9935 160.6855 0001220  85.1096 274.9910 12.62269751498602
GLOBALSTAR M096 [+]     
1 39075U 13005D   23315.44539190 -.00000068  00000+0  20185-3 0  9995
2 39075  52.0065 207.4986 0001246  68.7621 291.3379 12.62266075497576
GLOBALSTAR M078 [+]     
1 39076U 13005E   23315.26045812 -.00000100  00000+0  18903-4 0  9992
2 39076  51.9878 293.3638 0001026 353.5969   6.4884 12.62263018496176
GLOBALSTAR M095 [+]     
1 39077U 13005F   23315.36618444 -.00000100  00000+0  21310-4 0  9997
2 39077  51.9805 290.5295 0001053  25.5973 334.4946 12.62270569496044
GLOBALSTAR M087 [+]     
1 52888U 22064A   23315.54316223 -.00000092  00000+0  69754-4 0  9991
2 52888  51.9758 250.7722 0009336 165.4570 194.6601 13.37557605 68263
